NORAD_CAT_ID,OBJECT_NAME,OBJECT_TYPE,EPOCH,MEAN_MOTION,ECCENTRICITY,INCLINATION,RA_OF_ASC_NODE,ARG_OF_PERICENTER,MEAN_ANOMALY,BSTAR,MEAN_MOTION_DOT,MEAN_MOTION_DDOT,TLE_LINE0,TLE_LINE1,TLE_LINE2,SEMIMAJOR_AXIS,PERIOD,APOGEE,PERIGEE,DECAYED
53901.0,STARLINK-5024,PAYLOAD,2022-10-24 20:00:01,15.73038276,0.0001100999999999,53.2146,105.1919,71.5288,177.1588,0.0016959,0.0024271,0.0,0 STARLINK-5024,1 53901U 22119R   22297.83334491  .00242710  00000-0  16959-2 0  9998,2 53901  53.2146 105.1919 0001101  71.5288 177.1588 15.73038276  5139,6728.356,91.543,350.962,349.481,0.0
53901.0,STARLINK-5024,PAYLOAD,2022-10-24 22:00:00,15.73077587,0.0001053,53.2143,104.7797,68.7109,292.1620000000001,0.0015094,0.00215608,0.0,0 STARLINK-5024,1 53901U 22119R   22297.91667824  .00215608  00000-0  15094-2 0  9991,2 53901  53.2143 104.7797 0001053  68.7109 292.1620 15.73077587  1310,6728.244000000002,91.54,350.8180000000001,349.401,0.0
53901.0,STARLINK-5024,PAYLOAD,2022-10-25 04:00:00,15.73239573,8.8e-05,53.2143,103.541,75.885,261.6195,-0.00039987,-0.00056456,0.0,0 STARLINK-5024,1 53901U 22119R   22298.16667824 -.00056456  00000-0 -39987-3 0  9993,2 53901  53.2143 103.5410 0000880  75.8850 261.6195 15.73239573  5180,6727.781999999997,91.531,350.23900000000015,349.055,0.0
53901.0,STARLINK-5024,PAYLOAD,2022-10-25 14:00:01,15.73194551,0.0001069,53.2147,101.479,81.0174,97.6625,0.00016805,0.00023024,0.0,0 STARLINK-5024,1 53901U 22119R   22298.58334491  .00023024  00000-0  16805-3 0  9997,2 53901  53.2147 101.4790 0001069  81.0174  97.6625 15.73194551  1301,6727.911,91.533,350.495,349.056,0.0
53901.0,STARLINK-5024,PAYLOAD,2022-10-25 20:00:01,15.73205656,0.0001158,53.2149,100.2432,67.5787,87.8056,0.00039638,0.0005539,0.0,0 STARLINK-5024,1 53901U 22119R   22298.83334491  .00055390  00000-0  39638-3 0  9995,2 53901  53.2149 100.2432 0001158  67.5787  87.8056 15.73205656  5291,6727.879,91.533,350.523,348.965,0.0
53901.0,STARLINK-5024,PAYLOAD,2022-10-25 22:00:01,15.73224578,0.0001141,53.2148,99.8309,65.0095,202.6746,0.00019459,0.00026805,0.0,0 STARLINK-5024,1 53901U 22119R   22298.91668981  .00026805  00000-0  19459-3 0  9996,2 53901  53.2148  99.8309 0001141  65.0095 202.6746 15.73224578  1308,6727.825,91.532,350.458,348.922,0.0
53901.0,STARLINK-5024,PAYLOAD,2022-10-26 04:00:00,15.73235043,0.0001255,53.2151,98.5921,72.2586,172.0907,-0.00016195,-0.0002331999999999,0.0,0 STARLINK-5024,1 53901U 22119R   22299.16667824 -.00023320  00000-0 -16195-3 0  9994,2 53901  53.2151  98.5921 0001255  72.2586 172.0907 15.73235043  5345,6727.795,91.531,350.505,348.816,0.0
53901.0,STARLINK-5024,PAYLOAD,2022-10-26 14:00:01,15.73212621,0.0001504,53.2153,96.5303,74.5019,11.0455,-5.673800000000001e-05,-8.579e-05,0.0,0 STARLINK-5024,1 53901U 22119R   22299.58334491 -.00008579  00000-0 -56738-4 0  9998,2 53901  53.2153  96.5303 0001504  74.5019  11.0455 15.73212621  1301,6727.859,91.532,350.736,348.712,0.0
53901.0,STARLINK-5024,PAYLOAD,2022-10-26 22:00:00,15.73210914,0.0001543,53.2148,94.8821,66.602,107.8838,0.00032919,0.00045854,0.0,0 STARLINK-5024,1 53901U 22119R   22299.91667824  .00045854  00000-0  32919-3 0  9993,2 53901  53.2148  94.8821 0001543  66.6020 107.8838 15.73210914  1300,6727.864000000001,91.533,350.767,348.691,0.0
53901.0,STARLINK-5024,PAYLOAD,2022-10-27 04:00:00,15.73239397,0.0001314,53.215,93.6432,69.3386,81.873,-0.00024261,-0.00034586,0.0,0 STARLINK-5024,1 53901U 22119R   22300.16667824 -.00034586  00000-0 -24261-3 0  9996,2 53901  53.2150  93.6432 0001314  69.3386  81.8730 15.73239397  5503,6727.783,91.531,350.532,348.764,0.0
53901.0,STARLINK-5024,PAYLOAD,2022-10-27 14:00:01,15.73267354,0.0001159,53.2153,91.5816,65.6788,286.8083,-0.00046052,-0.00064939,0.0,0 STARLINK-5024,1 53901U 22119R   22300.58335648 -.00064939  00000-0 -46052-3 0  9995,2 53901  53.2153  91.5816 0001159  65.6788 286.8083 15.73267354  5569,6727.703,91.529,350.348,348.788,0.0
53901.0,STARLINK-5024,PAYLOAD,2022-10-27 22:00:00,15.73244962,0.0001261,53.2154,89.9333,50.8082,30.5927,-4.2851000000000014e-05,-6.641e-05,0.0,0 STARLINK-5024,1 53901U 22119R   22300.91667824 -.00006641  00000-0 -42851-4 0  9996,2 53901  53.2154  89.9333 0001261  50.8082  30.5927 15.73244962  1301,6727.767,91.531,350.48,348.784,0.0
53901.0,STARLINK-5024,PAYLOAD,2022-10-28 04:00:00,15.732413199999998,0.0001177,53.2159,88.6945,58.0653,0.0768,-0.00027379,-0.00038934,0.0,0 STARLINK-5024,1 53901U 22119R   22301.16667824 -.00038934  00000-0 -27379-3 0  9991,2 53901  53.2159  88.6945 0001177  58.0653   0.0768 15.73241320  5664,6727.776999999999,91.531,350.434,348.851,0.0
53901.0,STARLINK-5024,PAYLOAD,2022-10-28 14:00:01,15.73188144,0.0001396999999999,53.2159,86.6332,55.8168,203.5878,-7.9142e-05,-0.00011706,0.0,0 STARLINK-5024,1 53901U 22119R   22301.58335648 -.00011706  00000-0 -79142-4 0  9997,2 53901  53.2159  86.6332 0001397  55.8168 203.5878 15.73188144  1305,6727.929,91.534,350.7340000000001,348.85400000000016,0.0
53901.0,STARLINK-5024,PAYLOAD,2022-10-28 22:00:01,15.73214412,0.0001422,53.2154,84.9847,44.8745,303.4319,-7.927e-05,-0.00011737,0.0,0 STARLINK-5024,1 53901U 22119R   22301.91668981 -.00011737  00000-0 -79270-4 0  9999,2 53901  53.2154  84.9847 0001422  44.8745 303.4319 15.73214412  1308,6727.854,91.532,350.676,348.76199999999994,0.0
53901.0,STARLINK-5024,PAYLOAD,2022-10-29 04:00:00,15.73212021,0.0001133,53.2157,83.74600000000002,47.4296,277.5299,-0.00025035,-0.00035623,0.0,0 STARLINK-5024,1 53901U 22119R   22302.16667824 -.00035623  00000-0 -25035-3 0  9991,2 53901  53.2157  83.7460 0001133  47.4296 277.5299 15.73212021  5810,6727.861,91.532,350.48800000000006,348.964,0.0
53901.0,STARLINK-5024,PAYLOAD,2022-10-29 12:00:00,15.73195466,0.000108,53.2159,82.0969,42.1127,11.7759,0.00048791,0.000684,0.0,0 STARLINK-5024,1 53901U 22119R   22302.50001157  .00068400  00000-0  48791-3 0  9991,2 53901  53.2159  82.0969 0001080  42.1127  11.7759 15.73195466  1306,6727.908,91.533,350.5,349.046,0.0
53901.0,STARLINK-5024,PAYLOAD,2022-10-29 22:00:01,15.73261656,0.0001412,53.2157,80.0363,35.3095,219.8338,-0.00027555,-0.00039214,0.0,0 STARLINK-5024,1 53901U 22119R   22302.91668981 -.00039214  00000-0 -27555-3 0  9998,2 53901  53.2157  80.0363 0001412  35.3095 219.8338 15.73261656  1306,6727.719,91.53,350.534,348.634,0.0
53901.0,STARLINK-5024,PAYLOAD,2022-10-30 00:00:00,15.73270658,0.0001426999999999,53.2159,79.6234,37.6216,329.7025,-0.00056101,-0.00078858,0.0,0 STARLINK-5024,1 53901U 22119R   22303.00001157 -.00078858  00000-0 -56101-3 0  9991,2 53901  53.2159  79.6234 0001427  37.6216 329.7025 15.73270658  5945,6727.694,91.529,350.519,348.599,0.0
53901.0,STARLINK-5024,PAYLOAD,2022-10-30 14:00:01,15.73177773,0.0001538,53.2162,76.7368,41.8117,31.1194,0.00028592,0.00039659,0.0,0 STARLINK-5024,1 53901U 22119R   22303.58334491  .00039659  00000-0  28592-3 0  9991,2 53901  53.2162  76.7368 0001538  41.8117  31.1194 15.73177773  1306,6727.959,91.534,350.858,348.789,0.0
53901.0,STARLINK-5024,PAYLOAD,2022-10-30 22:00:01,15.73235399,0.0001636999999999,53.2156,75.0877,34.7885,127.1245,-0.00042823,-0.00060383,0.0,0 STARLINK-5024,1 53901U 22119R   22303.91668981 -.00060383  00000-0 -42823-3 0  9995,2 53901  53.2156  75.0877 0001637  34.7885 127.1245 15.73235399  1301,6727.794,91.531,350.761,348.55800000000005,0.0
53901.0,STARLINK-5024,PAYLOAD,2022-10-31 14:00:01,15.73250821,0.0001605,53.2158,71.7885,36.0674,303.6196,-0.0006721,-0.00094104,0.0,0 STARLINK-5024,1 53901U 22119R   22304.58334491 -.00094104  00000-0 -67210-3 0  9990,2 53901  53.2158  71.7885 0001605  36.0674 303.6196 15.73250821  1304,6727.75,91.53,350.695,348.535,0.0
53901.0,STARLINK-5024,PAYLOAD,2022-10-31 20:00:01,15.73180872,0.000178,53.2158,70.5521,31.6018,284.8777,-4.4495e-05,-6.855e-05,0.0,0 STARLINK-5024,1 53901U 22119R   22304.83335648 -.00006855  00000-0 -44495-4 0  9990,2 53901  53.2158  70.5521 0001780  31.6018 284.8777 15.73180872  6235,6727.95,91.534,351.01199999999994,348.617,0.0
53901.0,STARLINK-5024,PAYLOAD,2022-10-31 22:00:01,15.73201964,0.0001817,53.2157,70.1391,32.5028,36.1981,-0.00045575,-0.00064106,0.0,0 STARLINK-5024,1 53901U 22119R   22304.91668981 -.00064106  00000-0 -45575-3 0  9990,2 53901  53.2157  70.1391 0001817  32.5028  36.1981 15.73201964  1301,6727.89,91.533,350.977,348.532,0.0
53901.0,STARLINK-5024,PAYLOAD,2022-11-01 14:00:01,15.73207279,0.0002006999999999,53.2161,66.84,39.7045,206.7237,-5.4176e-06,-1.382e-05,0.0,0 STARLINK-5024,1 53901U 22119R   22305.58334491 -.00001382  00000-0 -54176-5 0  9996,2 53901  53.2161  66.8400 0002007  39.7045 206.7237 15.73207279  1303,6727.874,91.533,351.09,348.389,0.0
53901.0,STARLINK-5024,PAYLOAD,2022-11-01 20:00:01,15.7321193,0.0002013,53.2158,65.6033,33.3378,189.7966,-6.9428e-05,-0.00010359,0.0,0 STARLINK-5024,1 53901U 22119R   22305.83334491 -.00010359  00000-0 -69428-4 0  9993,2 53901  53.2158  65.6033 0002013  33.3378 189.7966 15.73211930  6396,6727.861,91.532,351.08,348.372,0.0
53901.0,STARLINK-5024,PAYLOAD,2022-11-01 22:00:00,15.73228799,0.0001975,53.2157,65.1904,32.0521,303.3137,-0.00041551,-0.00058607,0.0,0 STARLINK-5024,1 53901U 22119R   22305.91667824 -.00058607  00000-0 -41551-3 0  9995,2 53901  53.2157  65.1904 0001975  32.0521 303.3137 15.73228799  1300,6727.813,91.532,351.00699999999995,348.349,0.0
53901.0,STARLINK-5024,PAYLOAD,2022-11-02 14:00:01,15.73172778,0.0002065999999999,53.2161,61.8909,32.8262,120.3773,0.0004477,0.0006261,0.0,0 STARLINK-5024,1 53901U 22119R   22306.58334491  .00062610  00000-0  44770-3 0  9993,2 53901  53.2161  61.8909 0002066  32.8262 120.3773 15.73172778  1303,6727.973000000001,91.535,351.228,348.4480000000001,0.0
53901.0,STARLINK-5024,PAYLOAD,2022-11-02 22:00:00,15.73244158,0.0002077,53.2159,60.2417,28.487,213.6085,-0.00033389,-0.00047311,0.0,0 STARLINK-5024,1 53901U 22119R   22306.91667824 -.00047311  00000-0 -33389-3 0  9996,2 53901  53.2159  60.2417 0002077  28.4870 213.6085 15.73244158  1309,6727.769,91.531,351.032,348.237,0.0
